BEIDOU 3 (C01)          
1 36287U 10001A   22289.93799832 -.00000280  00000+0  00000+0 0  9990
2 36287   1.7230  48.2117 0000593 265.8062 189.5156  1.00268387 46730
BEIDOU 5 (C06)          
1 36828U 10036A   22289.77833008 -.00000122  00000+0  00000+0 0  9990
2 36828  54.1982 175.1211 0030179 185.9236  51.8299  1.00263542 44791
BEIDOU 6 (C04)          
1 37210U 10057A   22289.86199463 -.00000111  00000+0  00000+0 0  9997
2 37210   0.7716  41.2641 0007462 153.7713 300.6462  1.00272855 43851
BEIDOU 7 (C07)          
1 37256U 10068A   22290.24911558 -.00000172  00000+0  00000+0 0  9997
2 37256  49.9983 288.1860 0023610 206.3914  88.7970  1.00268350 43367
BEIDOU 8 (C08)          
1 37384U 11013A   22289.86974420 -.00000172  00000+0  00000+0 0  9993
2 37384  60.4705  53.0614 0024603 179.4019 214.4295  1.00275387 42246
BEIDOU 9 (C09)          
1 37763U 11038A   22289.77438448 -.00000068  00000+0  00000+0 0  9990
2 37763  54.4778 177.6264 0098679 227.5007 351.8713  1.00256346 41211
BEIDOU 10 (C10)         
1 37948U 11073A   22289.48464623 -.00000127  00000+0  00000+0 0  9992
2 37948  50.1152 287.8417 0086739 220.2424 146.9592  1.00266480 39974
BEIDOU 11 (C05)         
1 38091U 12008A   22290.12874061  .00000057  00000+0  00000+0 0  9996
2 38091   1.8357  70.0117 0009460 337.2327  83.4666  1.00275204 39050
BEIDOU 12 (C11)         
1 38250U 12018A   22289.49785308 -.00000102  00000+0  00000+0 0  9999
2 38250  56.6552 349.5623 0023958 251.1661 114.4589  1.86234310 71345
BEIDOU 13 (C12)         
1 38251U 12018B   22289.41671182 -.00000102  00000+0  00000+0 0  9996
2 38251  56.5704 348.8814 0014579 251.3151 104.0552  1.86234103 71337
BEIDOU 15 (C14)         
1 38775U 12050B   22289.62345197  .00000032  00000+0  00000+0 0  9991
2 38775  55.4724 107.6074 0011310 333.9961 355.7846  1.86231202 68719
BEIDOU 16 (C02)         
1 38953U 12059A   22289.91850049 -.00000173  00000+0  00000+0 0  9994
2 38953   1.2212  81.4203 0023702 293.5376  65.0618  1.00267339 36618
BEIDOU 17 (C31)         
1 40549U 15019A   22289.79033064 -.00000151  00000+0  00000+0 0  9999
2 40549  51.6769 311.3435 0038693 199.0889 255.0619  1.00270831 27651
BEIDOU 18 (C57)         
1 40748U 15037A   22289.56003220 -.00000101  00000+0  00000+0 0  9991
2 40748  55.8204 347.6697 0000984   3.6579 357.0943  1.86233350 49175
BEIDOU 19 (C58)         
1 40749U 15037B   22289.37733505 -.00000102  00000+0  00000+0 0  9998
2 40749  55.8243 347.6663 0003780 293.7986  78.6233  1.86232950 49165
BEIDOU 20 (C18)         
1 40938U 15053A   22289.79389545 -.00000110  00000+0  00000+0 0  9992
2 40938  51.3165 274.4743 0045924 200.0131 292.5264  1.00265561 25923
BEIDOU IGSO-6 (C13)     
1 41434U 16021A   22289.85718019 -.00000136  00000+0  00000+0 0  9997
2 41434  58.2804  51.5814 0046061 215.5320 160.4409  1.00259673 24052
BEIDOU-2 G7 (C03)       
1 41586U 16037A   22289.84216878 -.00000352  00000+0  00000+0 0  9997
2 41586   1.6422  68.5023 0007160 349.2270  21.2333  1.00265868 23360
BEIDOU-3 M1 (C19)       
1 43001U 17069A   22289.96181028  .00000037  00000+0  00000+0 0  9997
2 43001  55.6251 107.6119 0007348 293.6296  59.3825  1.86231609 33653
BEIDOU-3 M2 (C20)       
1 43002U 17069B   22290.01261978  .00000038  00000+0  00000+0 0  9990
2 43002  55.6246 107.6464 0005827 326.9716 102.9574  1.86231250 33656
BEIDOU-3 M3 (C27)       
1 43107U 18003A   22289.64937169 -.00000102  00000+0  00000+0 0  9997
2 43107  55.2725 348.5297 0003370  67.7039 284.9970  1.86232419 32400
BEIDOU-3 M4 (C28)       
1 43108U 18003B   22289.76382487 -.00000102  00000+0  00000+0 0  9998
2 43108  55.2658 348.5144 0004136 243.2104 229.4259  1.86230771 32416
BEIDOU-3 M5 (C21)       
1 43207U 18018A   22288.96619005  .00000025  00000+0  00000+0 0  9997
2 43207  55.5828 107.7554 0004375   8.6075 351.4367  1.86231570 31786
BEIDOU-3 M6 (C22)       
1 43208U 18018B   22289.03288311  .00000026  00000+0  00000+0 0  9990
2 43208  55.5821 107.7576 0005249 309.6796  50.3116  1.86231524 31785
BEIDOU-3 M7 (C29)       
1 43245U 18029A   22290.02687670 -.00000098  00000+0  00000+0 0  9995
2 43245  55.1810 346.2776 0001205 224.1148 292.2105  1.86232618 30950
BEIDOU-3 M8 (C30)       
1 43246U 18029B   22289.85898968 -.00000098  00000+0  10000-3 0  9994
2 43246  55.1776 346.3122 0002892 346.3640 104.0369  1.86232850 30944
BEIDOU IGSO-7 (C16)     
1 43539U 18057A   22289.97513772 -.00000131  00000+0  00000+0 0  9993
2 43539  55.0895 174.6574 0051565 226.9118  89.5096  1.00273436 15721
BEIDOU-3 M9 (C23)       
1 43581U 18062A   22289.72484343 -.00000008  00000+0  00000+0 0  9993
2 43581  54.2465 227.9343 0005195 283.2910 288.5045  1.86231895 28683
BEIDOU-3 M10 (C24)      
1 43582U 18062B   22289.55001876 -.00000007  00000+0  00000+0 0  9990
2 43582  54.2457 227.9302 0005510 349.1756 197.3500  1.86232435 28685
BEIDOU-3 M11 (C25)      
1 43602U 18067A   22289.50673865 -.00000007  00000+0  00000+0 0  9996
2 43602  54.3295 226.5574 0007212   5.5718 193.0406  1.86231478 28175
BEIDOU-3 M12 (C26)      
1 43603U 18067B   22289.64807082 -.00000008  00000+0  00000+0 0  9993
2 43603  54.3259 226.5188 0004421 351.0366 212.6851  1.86231414 28198
BEIDOU-3 M13 (C32)      
1 43622U 18072A   22289.83059388  .00000035  00000+0  00000+0 0  9998
2 43622  55.5517 107.2776 0004182 288.0289  67.0380  1.86231634 27703
BEIDOU-3 M14 (C33)      
1 43623U 18072B   22289.75076987  .00000034  00000+0  00000+0 0  9993
2 43623  55.5535 107.2722 0002676 339.1399  52.6509  1.86231644 27716
BEIDOU-3 M15 (C34)      
1 43647U 18078A   22288.78521525 -.00000104  00000+0  10000-3 0  9994
2 43647  55.0765 346.4681 0005150 359.1593   0.9669  1.86232793 27204
BEIDOU-3 M16 (C35)      
1 43648U 18078B   22289.52477534 -.00000101  00000+0  00000+0 0  9990
2 43648  55.0724 346.4484 0002894  13.9078  29.6100  1.86232220 27232
BEIDOU-3 G1 (C59)       
1 43683U 18085A   22289.78621748 -.00000277  00000+0  00000+0 0  9997
2 43683   1.0348 147.9127 0004555  53.6786 246.7659  1.00274799 14628
BEIDOU-3 M17 (C36)      
1 43706U 18093A   22290.14726680 -.00000011  00000+0  00000+0 0  9991
2 43706  54.3275 227.8149 0009892 281.3201  78.5675  1.86232083 26588
BEIDOU-3 M18 (C37)      
1 43707U 18093B   22289.82606494 -.00000009  00000+0  00000+0 0  9992
2 43707  54.3292 227.8158 0009079 303.0160 292.8545  1.86232247 26580
BEIDOU-3 IGSO-1 (C38)   
1 44204U 19023A   22290.01421815 -.00000204  00000+0  00000+0 0  9991
2 44204  56.7415  51.6714 0023966 189.5736 269.0809  1.00272950 12938
BEIDOU-2 G8             
1 44231U 19027A   22289.85885542 -.00000248  00000+0  00000+0 0  9994
2 44231   1.1519  79.4011 0006590 127.0822 272.4558  1.00266640 12648
BEIDOU-3 IGSO-2 (C39)   
1 44337U 19035A   22289.93158683 -.00000129  00000+0  00000+0 0  9996
2 44337  55.1244 170.6442 0025496 190.1652 119.5188  1.00267087 12263
BEIDOU-3 M23 (C45)      
1 44542U 19061A   22289.54664506 -.00000006  00000+0  00000+0 0  9990
2 44542  54.5542 228.0014 0008902 339.0222  20.9397  1.86231606 20840
BEIDOU-3 M24 (C46)      
1 44543U 19061B   22289.67922257 -.00000007  00000+0  00000+0 0  9996
2 44543  54.5524 227.9653 0006273 321.6183  38.6913  1.86231806 20842
BEIDOU-3 IGSO-3         
1 44709U 19073A   22289.92547652 -.00000150  00000+0  10000-3 0  9997
2 44709  57.0679 295.1219 0027326 183.2322   0.3102  1.00272007 11018
BEIDOU-3 M21            
1 44793U 19078A   22289.41232184 -.00000101  00000+0  10000-3 0  9996
2 44793  54.9250 346.4531 0004929   8.8583   5.4200  1.86232239 19700
BEIDOU-3 M22            
1 44794U 19078B   22289.55451396 -.00000101  00000+0  00000+0 0  9995
2 44794  54.8990 346.4375 0002881   3.1278  18.3585  1.86232746 19703
BEIDOU-3 M19            
1 44864U 19090A   22289.74870969  .00000034  00000+0  00000+0 0  9993
2 44864  55.4866 107.4845 0014847 269.1548  76.8948  1.86231839 19283
BEIDOU-3 M20            
1 44865U 19090B   22289.63767016  .00000033  00000+0  00000+0 0  9999
2 44865  55.4877 107.5202 0012944 285.2247  76.2256  1.86231798 19263
BEIDOU-3 G2             
1 45344U 20017A   22290.13301344 -.00000141  00000+0  00000+0 0  9999
2 45344   2.0102 358.3189 0003491 173.0129 342.1647  1.00270437  9846
BEIDOU-3 G3             
1 45807U 20040A   22290.06717714 -.00000354  00000+0  00000+0 0  9999
2 45807   1.1767 307.5910 0009497 334.9930 237.5967  1.00265653  8659
